{
  "norad_id": 54647,
  "name": "ONEWEB-0545",
  "history": [
    {
      "epoch": "2026-03-28T17:24:16.331328",
      "apogee_km": 1178.8647659240041,
      "perigee_km": 1176.6578391478006,
      "latitude_deg": -78.06421059114408,
      "longitude_deg": 74.31814591982402,
      "semi_major_axis_km": 7555.898302535902,
      "eccentricity": 0.00014604,
      "inclination_deg": 87.9173,
      "raan_deg": 260.0178,
      "arg_perigee_deg": 111.7638,
      "mean_anomaly_deg": 248.3651,
      "mean_motion_rev_day": 13.21823918
    },
    {
      "epoch": "2026-03-29T00:40:17.033088",
      "apogee_km": 1178.8661778043052,
      "perigee_km": 1176.655322122666,
      "latitude_deg": -43.62557682731277,
      "longitude_deg": 103.38559232000262,
      "semi_major_axis_km": 7555.897749963486,
      "eccentricity": 0.0001463,
      "inclination_deg": 87.9173,
      "raan_deg": 259.9573,
      "arg_perigee_deg": 112.071,
      "mean_anomaly_deg": 248.0579,
      "mean_motion_rev_day": 13.21824063
    }
  ]
}